TIGER-8                 
1 59120U 24043Y   26199.82577373  .00005352  00000+0  11460-3 0  9998
2 59120  97.5581 349.7183 0008895  91.9539 268.2728 15.45207173132674
TIGER-7                 
1 59141U 24043AV  26198.94601759  .00006669  00000+0  12334-3 0  9992
2 59141  97.5520 351.3263 0006721  69.2812 290.9158 15.49386492132738
