{"fetched_at":"2026-07-19T07:05:41.002Z","source":"https://celestrak.org/NORAD/elements/gp.php?NAME=TIGER&FORMAT=JSON","constellation":"oq-technology","records":[{"OBJECT_NAME":"TIGER-8","OBJECT_ID":"2024-043Y","EPOCH":"2026-07-18T19:49:06.850272","CLASSIFICATION_TYPE":"U","MEAN_MOTION":15.45207173,"ECCENTRICITY":0.0008895,"INCLINATION":97.5581,"RA_OF_ASC_NODE":349.7183,"ARG_OF_PERICENTER":91.9539,"MEAN_ANOMALY":268.2728,"EPHEMERIS_TYPE":0,"NORAD_CAT_ID":59120,"ELEMENT_SET_NO":999,"REV_AT_EPOCH":13267,"BSTAR":0.0001146,"MEAN_MOTION_DOT":0.00005352,"MEAN_MOTION_DDOT":0},{"OBJECT_NAME":"TIGER-7","OBJECT_ID":"2024-043AV","EPOCH":"2026-07-17T22:42:15.919776","CLASSIFICATION_TYPE":"U","MEAN_MOTION":15.49386492,"ECCENTRICITY":0.00067218,"INCLINATION":97.552,"RA_OF_ASC_NODE":351.3263,"ARG_OF_PERICENTER":69.2812,"MEAN_ANOMALY":290.9158,"EPHEMERIS_TYPE":0,"NORAD_CAT_ID":59141,"ELEMENT_SET_NO":999,"REV_AT_EPOCH":13273,"BSTAR":0.00012334451,"MEAN_MOTION_DOT":0.00006669,"MEAN_MOTION_DDOT":0}]}
